start=new Date('2021-12-04T00:00:00.000Z').valueOf();
sats=[{"REF_FRAME":"TEME","MEAN_MOTION_DDOT":"0.0000000000000","SEMIMAJOR_AXIS":"6925.342","OBJECT_TYPE":"PAYLOAD","INCLINATION":"53.0561","COUNTRY_CODE":"US","OBJECT_NAME":"STARLINK-1941","EPHEMERIS_TYPE":"0","GP_ID":"191011727","TLE_LINE2":"2 46793  53.0561 112.4829 0001703  88.4547 271.6637 15.06402030 61959","MEAN_ELEMENT_THEORY":"SGP4","PERIOD":"95.592","TIME_SYSTEM":"UTC","ECCENTRICITY":"0.00017030","MEAN_MOTION":"15.06402030","RCS_SIZE":"LARGE","MEAN_MOTION_DOT":"0.00000801","LAUNCH_DATE":"2020-10-24","PERIAPSIS":"546.028","APOAPSIS":"548.387","CLASSIFICATION_TYPE":"U","FILE":"3231740","BSTAR":"0.00007266700000","ARG_OF_PERICENTER":"88.4547","RA_OF_ASC_NODE":"112.4829","EPOCH":"2021-12-03T10:02:09.683232","TLE_LINE1":"1 46793U 20074BG  21337.41816763  .00000801  00000-0  72667-4 0  9995","DECAY_DATE":null,"REV_AT_EPOCH":"6195","CENTER_NAME":"EARTH","ELEMENT_SET_NO":"999","SITE":"AFETR","MEAN_ANOMALY":"271.6637","NORAD_CAT_ID":"46793","OBJECT_ID":"2020-074BG"},{"ARG_OF_PERICENTER":"90.9547","EPOCH":"2021-12-03T18:10:30.219744","RA_OF_ASC_NODE":"110.9663","TLE_LINE1":"1 46794U 20074BH  21337.75729421  .00001547  00000-0  12276-3 0  9994","DECAY_DATE":null,"REV_AT_EPOCH":"6201","CENTER_NAME":"EARTH","ELEMENT_SET_NO":"999","SITE":"AFETR","NORAD_CAT_ID":"46794","MEAN_ANOMALY":"269.1606","OBJECT_ID":"2020-074BH","ECCENTRICITY":"0.00014310","MEAN_MOTION":"15.06390269","RCS_SIZE":"LARGE","MEAN_MOTION_DOT":"0.00001547","LAUNCH_DATE":"2020-10-24","PERIAPSIS":"546.252","APOAPSIS":"548.234","CLASSIFICATION_TYPE":"U","BSTAR":"0.00012276000000","FILE":"3231910","COUNTRY_CODE":"US","OBJECT_NAME":"STARLINK-1942","EPHEMERIS_TYPE":"0","GP_ID":"191037929","TLE_LINE2":"2 46794  53.0546 110.9663 0001431  90.9547 269.1606 15.06390269 62014","MEAN_ELEMENT_THEORY":"SGP4","TIME_SYSTEM":"UTC","PERIOD":"95.593","REF_FRAME":"TEME","MEAN_MOTION_DDOT":"0.0000000000000","SEMIMAJOR_AXIS":"6925.378","OBJECT_TYPE":"PAYLOAD","INCLINATION":"53.0546"},{"REV_AT_EPOCH":"6271","DECAY_DATE":null,"TLE_LINE1":"1 46795U 20074BJ  21337.54931865  .00166782  00000-0  56031-3 0  9999","RA_OF_ASC_NODE":"40.7662","EPOCH":"2021-12-03T13:11:01.131360","ARG_OF_PERICENTER":"8.0421","OBJECT_ID":"2020-074BJ","MEAN_ANOMALY":"352.0644","NORAD_CAT_ID":"46795","SITE":"AFETR","ELEMENT_SET_NO":"999","CENTER_NAME":"EARTH","MEAN_MOTION":"15.89112208","ECCENTRICITY":"0.00025650","BSTAR":"0.00056031000000","FILE":"3231859","APOAPSIS":"306.487","CLASSIFICATION_TYPE":"U","MEAN_MOTION_DOT":"0.00166782","LAUNCH_DATE":"2020-10-24","PERIAPSIS":"303.059","RCS_SIZE":"LARGE","TLE_LINE2":"2 46795  53.0508  40.7662 0002565   8.0421 352.0644 15.89112208 62719","GP_ID":"191015703","EPHEMERIS_TYPE":"0","OBJECT_NAME":"STARLINK-1943","COUNTRY_CODE":"US","TIME_SYSTEM":"UTC","PERIOD":"90.617","MEAN_ELEMENT_THEORY":"SGP4","MEAN_MOTION_DDOT":"0.0000000000000","REF_FRAME":"TEME","OBJECT_TYPE":"PAYLOAD","INCLINATION":"53.0508","SEMIMAJOR_AXIS":"6682.908"},{"INCLINATION":"53.0556","OBJECT_TYPE":"PAYLOAD","SEMIMAJOR_AXIS":"6925.339","REF_FRAME":"TEME","MEAN_MOTION_DDOT":"0.0000000000000","TIME_SYSTEM":"UTC","PERIOD":"95.592","MEAN_ELEMENT_THEORY":"SGP4","GP_ID":"191011477","TLE_LINE2":"2 46796  53.0556 101.9633 0001438  91.1323 268.9831 15.06403207 62111","COUNTRY_CODE":"US","OBJECT_NAME":"STARLINK-1944","EPHEMERIS_TYPE":"0","FILE":"3231740","BSTAR":"0.00002552300000","RCS_SIZE":"LARGE","PERIAPSIS":"546.208","LAUNCH_DATE":"2020-10-24","MEAN_MOTION_DOT":"0.00000099","APOAPSIS":"548.200","CLASSIFICATION_TYPE":"U","MEAN_MOTION":"15.06403207","ECCENTRICITY":"0.00014380","SITE":"AFETR","MEAN_ANOMALY":"268.9831","NORAD_CAT_ID":"46796","OBJECT_ID":"2020-074BK","CENTER_NAME":"EARTH","ELEMENT_SET_NO":"999","TLE_LINE1":"1 46796U 20074BK  21337.53335027  .00000099  00000-0  25523-4 0  9998","DECAY_DATE":null,"REV_AT_EPOCH":"6211","ARG_OF_PERICENTER":"91.1323","RA_OF_ASC_NODE":"101.9633","EPOCH":"2021-12-03T12:48:01.463328"},{"DECAY_DATE":null,"REV_AT_EPOCH":"6268","TLE_LINE1":"1 46797U 20074BL  21337.50305526  .00017999  00000-0  25455-3 0  9997","ARG_OF_PERICENTER":"41.4676","EPOCH":"2021-12-03T12:04:23.974464","RA_OF_ASC_NODE":"61.9493","OBJECT_ID":"2020-074BL","SITE":"AFETR","NORAD_CAT_ID":"46797","MEAN_ANOMALY":"318.6474","ELEMENT_SET_NO":"999","CENTER_NAME":"EARTH","MEAN_MOTION":"15.56624835","ECCENTRICITY":"0.00018340","FILE":"3231740","BSTAR":"0.00025455000000","CLASSIFICATION_TYPE":"U","APOAPSIS":"398.678","RCS_SIZE":"LARGE","MEAN_MOTION_DOT":"0.00017999","LAUNCH_DATE":"2020-10-24","PERIAPSIS":"396.193","TLE_LINE2":"2 46797  53.0571  61.9493 0001834  41.4676 318.6474 15.56624835 62682","GP_ID":"191012227","OBJECT_NAME":"STARLINK-1947","EPHEMERIS_TYPE":"0","COUNTRY_CODE":"US","TIME_SYSTEM":"UTC","PERIOD":"92.508","MEAN_ELEMENT_THEORY":"SGP4","MEAN_MOTION_DDOT":"0.0000000000000","REF_FRAME":"TEME","INCLINATION":"53.0571","OBJECT_TYPE":"PAYLOAD","SEMIMAJOR_AXIS":"6775.571"},{"INCLINATION":"53.0531","OBJECT_TYPE":"PAYLOAD","SEMIMAJOR_AXIS":"6925.343","MEAN_MOTION_DDOT":"0.0000000000000","REF_FRAME":"TEME","TIME_SYSTEM":"UTC","PERIOD":"95.592","MEAN_ELEMENT_THEORY":"SGP4","TLE_LINE2":"2 46798  53.0531 125.9340 0001807  93.5262 266.5934 15.06401917 61804","GP_ID":"191038429","EPHEMERIS_TYPE":"0","OBJECT_NAME":"STARLINK-1948","COUNTRY_CODE":"US","BSTAR":"0.00018537000000","FILE":"3231910","APOAPSIS":"548.459","CLASSIFICATION_TYPE":"U","PERIAPSIS":"545.956","LAUNCH_DATE":"2020-10-24","MEAN_MOTION_DOT":"0.00002481","RCS_SIZE":"LARGE","MEAN_MOTION":"15.06401917","ECCENTRICITY":"0.00018070","OBJECT_ID":"2020-074BM","NORAD_CAT_ID":"46798","MEAN_ANOMALY":"266.5934","SITE":"AFETR","ELEMENT_SET_NO":"999","CENTER_NAME":"EARTH","REV_AT_EPOCH":"6180","DECAY_DATE":null,"TLE_LINE1":"1 46798U 20074BM  21337.76417167  .00002481  00000-0  18537-3 0  9994","RA_OF_ASC_NODE":"125.9340","EPOCH":"2021-12-03T18:20:24.432288","ARG_OF_PERICENTER":"93.5262"},{"MEAN_MOTION":"15.06396996","ECCENTRICITY":"0.00014260","BSTAR":"0.00005190900000","FILE":"3231910","RCS_SIZE":"LARGE","PERIAPSIS":"546.235","LAUNCH_DATE":"2020-11-25","MEAN_MOTION_DOT":"0.00000492","APOAPSIS":"548.210","CLASSIFICATION_TYPE":"U","TLE_LINE1":"1 47122U 20088A   21337.71857109  .00000492  00000-0  51909-4 0  9991","DECAY_DATE":null,"REV_AT_EPOCH":"5716","ARG_OF_PERICENTER":"76.9752","RA_OF_ASC_NODE":"91.1299","EPOCH":"2021-12-03T17:14:44.542176","SITE":"AFETR","MEAN_ANOMALY":"283.1396","NORAD_CAT_ID":"47122","OBJECT_ID":"2020-088A","CENTER_NAME":"EARTH","ELEMENT_SET_NO":"999","REF_FRAME":"TEME","MEAN_MOTION_DDOT":"0.0000000000000","INCLINATION":"53.0546","OBJECT_TYPE":"PAYLOAD","SEMIMAJOR_AXIS":"6925.358","GP_ID":"191038467","TLE_LINE2":"2 47122  53.0546  91.1299 0001426  76.9752 283.1396 15.06396996 57166","COUNTRY_CODE":"US","OBJECT_NAME":"STARLINK-1777","EPHEMERIS_TYPE":"0","TIME_SYSTEM":"UTC","PERIOD":"95.592","MEAN_ELEMENT_THEORY":"SGP4"},{"PERIOD":"95.593","TIME_SYSTEM":"UTC","MEAN_ELEMENT_THEORY":"SGP4","TLE_LINE2":"2 47124  53.0546  95.9086 0001361  84.2367 275.8777 15.06393375 57109","GP_ID":"191038719","EPHEMERIS_TYPE":"0","OBJECT_NAME":"STARLINK-1785","COUNTRY_CODE":"US","OBJECT_TYPE":"PAYLOAD","INCLINATION":"53.0546","SEMIMAJOR_AXIS":"6925.369","MEAN_MOTION_DDOT":"0.0000000000000","REF_FRAME":"TEME","OBJECT_ID":"2020-088C","MEAN_ANOMALY":"275.8777","NORAD_CAT_ID":"47124","SITE":"AFETR","ELEMENT_SET_NO":"999","CENTER_NAME":"EARTH","REV_AT_EPOCH":"5710","DECAY_DATE":null,"TLE_LINE1":"1 47124U 20088C   21337.77061252  .00000260  00000-0  36368-4 0  9990","RA_OF_ASC_NODE":"95.9086","EPOCH":"2021-12-03T18:29:40.921728","ARG_OF_PERICENTER":"84.2367","FILE":"3231910","BSTAR":"0.00003636800000","CLASSIFICATION_TYPE":"U","APOAPSIS":"548.176","LAUNCH_DATE":"2020-11-25","PERIAPSIS":"546.291","MEAN_MOTION_DOT":"0.00000260","RCS_SIZE":"LARGE","MEAN_MOTION":"15.06393375","ECCENTRICITY":"0.00013610"},{"MEAN_MOTION":"15.06405668","ECCENTRICITY":"0.00013320","BSTAR":"-0.00028913000000","FILE":"3231910","LAUNCH_DATE":"2020-11-25","PERIAPSIS":"546.274","MEAN_MOTION_DOT":"-0.00004586","RCS_SIZE":"LARGE","APOAPSIS":"548.119","CLASSIFICATION_TYPE":"U","TLE_LINE1":"1 47126U 20088E   21337.74437142 -.00004586  00000-0 -28913-3 0  9997","REV_AT_EPOCH":"5717","DECAY_DATE":null,"EPOCH":"2021-12-03T17:51:53.690688","RA_OF_ASC_NODE":"91.0199","ARG_OF_PERICENTER":"87.5716","MEAN_ANOMALY":"272.5426","NORAD_CAT_ID":"47126","SITE":"AFETR","OBJECT_ID":"2020-088E","CENTER_NAME":"EARTH","ELEMENT_SET_NO":"999","REF_FRAME":"TEME","MEAN_MOTION_DDOT":"0.0000000000000","OBJECT_TYPE":"PAYLOAD","INCLINATION":"53.0554","SEMIMAJOR_AXIS":"6925.331","GP_ID":"191039469","TLE_LINE2":"2 47126  53.0554  91.0199 0001332  87.5716 272.5426 15.06405668 57175","COUNTRY_CODE":"US","EPHEMERIS_TYPE":"0","OBJECT_NAME":"STARLINK-1812","PERIOD":"95.592","TIME_SYSTEM":"UTC","MEAN_ELEMENT_THEORY":"SGP4"},{"MEAN_MOTION":"15.06390156","ECCENTRICITY":"0.00020900","BSTAR":"-0.00004163100000","FILE":"3231910","LAUNCH_DATE":"2020-11-25","PERIAPSIS":"545.796","MEAN_MOTION_DOT":"-0.00000902","RCS_SIZE":"LARGE","APOAPSIS":"548.691","CLASSIFICATION_TYPE":"U","TLE_LINE1":"1 47128U 20088G   21337.63564041 -.00000902  00000-0 -41631-4 0  9997","REV_AT_EPOCH":"5743","DECAY_DATE":null,"RA_OF_ASC_NODE":"71.4962","EPOCH":"2021-12-03T15:15:19.331424","ARG_OF_PERICENTER":"237.3023","NORAD_CAT_ID":"47128","MEAN_ANOMALY":"122.7765","SITE":"AFETR","OBJECT_ID":"2020-088G","CENTER_NAME":"EARTH","ELEMENT_SET_NO":"999","REF_FRAME":"TEME","MEAN_MOTION_DDOT":"0.0000000000000","OBJECT_TYPE":"PAYLOAD","INCLINATION":"53.0562","SEMIMAJOR_AXIS":"6925.379","GP_ID":"191038217","TLE_LINE2":"2 47128  53.0562  71.4962 0002090 237.3023 122.7765 15.06390156 57430","COUNTRY_CODE":"US","EPHEMERIS_TYPE":"0","OBJECT_NAME":"STARLINK-1837","PERIOD":"95.593","TIME_SYSTEM":"UTC","MEAN_ELEMENT_THEORY":"SGP4"}];
